NORAD_CAT_ID,OBJECT_NAME,OBJECT_TYPE,EPOCH,MEAN_MOTION,ECCENTRICITY,INCLINATION,RA_OF_ASC_NODE,ARG_OF_PERICENTER,MEAN_ANOMALY,BSTAR,MEAN_MOTION_DOT,MEAN_MOTION_DDOT,TLE_LINE0,TLE_LINE1,TLE_LINE2,SEMIMAJOR_AXIS,PERIOD,APOGEE,PERIGEE,DECAYED
52361.0,STARLINK-3728,PAYLOAD,2024-02-20 22:51:44,15.08844054,0.0001471,53.2179,315.8406,100.3673,259.7485,0.00027546,4.099e-05,0.0,0 STARLINK-3728,1 52361U 22045AG  24051.95260199  .00004099  00000-0  27546-3 0  9992,2 52361  53.2179 315.8406 0001471 100.3673 259.7485 15.08844054102907,6917.868,95.437,540.751,538.715,0.0
52361.0,STARLINK-3728,PAYLOAD,2024-02-21 03:37:54,15.0884882,0.0001415,53.2172,314.9478,100.4908,259.6244,0.0003901,5.927e-05,0.0,0 STARLINK-3728,1 52361U 22045AG  24052.15132050  .00005927  00000-0  39010-3 0  9999,2 52361  53.2172 314.9478 0001415 100.4908 259.6244 15.08848820102939,6917.853,95.437,540.697,538.74,0.0
52361.0,STARLINK-3728,PAYLOAD,2024-02-21 09:59:26,15.08849519,0.0001359,53.2168,313.7584,87.663,272.4518,0.00037676,5.715e-05,0.0,0 STARLINK-3728,1 52361U 22045AG  24052.41628015  .00005715  00000-0  37676-3 0  9990,2 52361  53.2168 313.7584 0001359  87.6630 272.4518 15.08849519102971,6917.851,95.437,540.656,538.776,0.0
52361.0,STARLINK-3728,PAYLOAD,2024-02-21 22:42:32,15.08838366,0.0001586,53.2183,311.3854,107.5301,252.5865,7.866e-05,9.64e-06,0.0,0 STARLINK-3728,1 52361U 22045AG  24052.94620436  .00000964  00000-0  78660-4 0  9997,2 52361  53.2183 311.3854 0001586 107.5301 252.5865 15.08838366103053,6917.885,95.438,540.848,538.653,0.0
52361.0,STARLINK-3728,PAYLOAD,2024-02-22 09:50:13,15.08842184,0.0001525,53.2179,309.3047,106.6817,253.4343,0.0001602,2.263e-05,0.0,0 STARLINK-3728,1 52361U 22045AG  24053.40988365  .00002263  00000-0  16020-3 0  9992,2 52361  53.2179 309.3047 0001525 106.6817 253.4343 15.08842184103126,6917.874,95.437,540.794,538.684,0.0
52361.0,STARLINK-3728,PAYLOAD,2024-02-22 22:33:18,15.08844116,0.0001568,53.2178,306.9258,105.6707,254.4459,0.00017802,2.547e-05,0.0,0 STARLINK-3728,1 52361U 22045AG  24053.93980311  .00002547  00000-0  17802-3 0  9997,2 52361  53.2178 306.9258 0001568 105.6707 254.4459 15.08844116103201,6917.868,95.437,540.818,538.648,0.0
52361.0,STARLINK-3728,PAYLOAD,2024-02-23 03:19:28,15.08847632,0.0001607,53.2186,306.0287,86.5202,273.5974,0.0002747,4.087e-05,0.0,0 STARLINK-3728,1 52361U 22045AG  24054.13852187  .00004087  00000-0  27470-3 0  9992,2 52361  53.2186 306.0287 0001607  86.5202 273.5974 15.08847632103237,6917.857,95.437,540.834,538.61,0.0
52361.0,STARLINK-3728,PAYLOAD,2024-02-23 09:41:01,15.08841069,0.0001625,53.2171,304.8395,85.5232,274.5945,0.00016749,2.379e-05,0.0,0 STARLINK-3728,1 52361U 22045AG  24054.40348454  .00002379  00000-0  16749-3 0  9998,2 52361  53.2171 304.8395 0001625  85.5232 274.5945 15.08841069103270,6917.877,95.437,540.866,538.618,0.0
52361.0,STARLINK-3728,PAYLOAD,2024-02-23 22:24:06,15.08832749,0.0001648,53.2175,302.4613,78.8601,281.2577,-6.3185e-05,-1.293e-05,0.0,0 STARLINK-3728,1 52361U 22045AG  24054.93340878 -.00001293  00000-0 -63185-4 0  9991,2 52361  53.2175 302.4613 0001648  78.8601 281.2577 15.08832749103351,6917.903,95.438,540.908,538.627,0.0
52361.0,STARLINK-3728,PAYLOAD,2024-02-24 01:34:52,15.08836196,0.0001432,53.2165,301.8687,83.5014,276.6141,3.4466e-05,2.61e-06,0.0,0 STARLINK-3728,1 52361U 22045AG  24055.06588829  .00000261  00000-0  34466-4 0  9998,2 52361  53.2165 301.8687 0001432  83.5014 276.6141 15.08836196103373,6917.892,95.438,540.748,538.766,0.0
52361.0,STARLINK-3728,PAYLOAD,2024-02-24 09:31:48,15.08841887,0.0001415,53.2164,300.3821,84.365,275.7504,0.00015827,2.232e-05,0.0,0 STARLINK-3728,1 52361U 22045AG  24055.39708717  .00002232  00000-0  15827-3 0  9993,2 52361  53.2164 300.3821 0001415  84.3650 275.7504 15.08841887103424,6917.875,95.437,540.719,538.761,0.0
52361.0,STARLINK-3728,PAYLOAD,2024-02-25 09:22:35,15.08848063,0.0001362,53.2158,295.9199,82.2792,277.8354,0.00025638,3.796e-05,0.0,0 STARLINK-3728,1 52361U 22045AG  24056.39068516  .00003796  00000-0  25638-3 0  9997,2 52361  53.2158 295.9199 0001362  82.2792 277.8354 15.08848063103574,6917.856,95.437,540.663,538.779,0.0
52361.0,STARLINK-3728,PAYLOAD,2024-02-25 20:30:16,15.08850914,0.0001377,53.2152,293.8381,82.1337,277.9812,0.00014596,2.036e-05,0.0,0 STARLINK-3728,1 52361U 22045AG  24056.85436265  .00002036  00000-0  14596-3 0  9995,2 52361  53.2152 293.8381 0001377  82.1337 277.9812 15.08850914103644,6917.847,95.437,540.665,538.759,0.0
52361.0,STARLINK-3728,PAYLOAD,2024-02-25 22:05:40,15.08846444,0.0001368,53.2156,293.541,82.8629,277.2519,0.00030741,4.609e-05,0.0,0 STARLINK-3728,1 52361U 22045AG  24056.92060578  .00004609  00000-0  30741-3 0  9991,2 52361  53.2156 293.5410 0001368  82.8629 277.2519 15.08846444103650,6917.861,95.437,540.672,538.779,0.0
52361.0,STARLINK-3728,PAYLOAD,2024-02-26 01:16:26,15.08853127,0.0001454,53.2155,292.9451,87.9819,272.134,0.00031063,4.661e-05,0.0,0 STARLINK-3728,1 52361U 22045AG  24057.05308214  .00004661  00000-0  31063-3 0  9994,2 52361  53.2155 292.9451 0001454  87.9819 272.1340 15.08853127103674,6917.84,95.437,540.711,538.699,0.0
52361.0,STARLINK-3728,PAYLOAD,2024-02-26 18:45:41,15.08839853,0.0001458,53.2152,289.6746,71.0904,289.0246,5.1465e-05,5.31e-06,0.0,0 STARLINK-3728,1 52361U 22045AG  24057.78172765  .00000531  00000-0  51465-4 0  9995,2 52361  53.2152 289.6746 0001458  71.0904 289.0246 15.08839853103788,6917.881,95.438,540.754,538.737,0.0
52361.0,STARLINK-3728,PAYLOAD,2024-02-26 21:56:27,15.08838376,0.0001434,53.215,289.0805,63.605,296.5089,0.0001114,1.485e-05,0.0,0 STARLINK-3728,1 52361U 22045AG  24057.91420855  .00001485  00000-0  11140-3 0  9990,2 52361  53.2150 289.0805 0001434  63.6050 296.5089 15.08838376103809,6917.885,95.438,540.742,538.758,0.0
52361.0,STARLINK-3728,PAYLOAD,2024-02-27 20:11:51,15.08838534,0.0001426,53.2152,284.9172,65.1065,295.0075,0.00011136,1.485e-05,0.0,0 STARLINK-3728,1 52361U 22045AG  24058.84157060  .00001485  00000-0  11136-3 0  9993,2 52361  53.2152 284.9172 0001426  65.1065 295.0075 15.08838534103946,6917.885,95.438,540.736,538.763,0.0
52361.0,STARLINK-3728,PAYLOAD,2024-02-27 21:47:14,15.0884006,0.0001461,53.2163,284.6162,83.5972,276.5186,4.9916e-05,5.07e-06,0.0,0 STARLINK-3728,1 52361U 22045AG  24058.90780870  .00000507  00000-0  49916-4 0  9993,2 52361  53.2163 284.6162 0001461  83.5972 276.5186 15.08840060103959,6917.88,95.438,540.756,538.735,0.0
52361.0,STARLINK-3728,PAYLOAD,2024-02-28 21:38:02,15.08834809,0.0001451,53.2164,280.161,92.1885,267.9273,7.6832e-05,9.35e-06,0.0,0 STARLINK-3728,1 52361U 22045AG  24059.90141424  .00000935  00000-0  76832-4 0  9992,2 52361  53.2164 280.1610 0001451  92.1885 267.9273 15.08834809104100,6917.896,95.438,540.765,538.757,0.0
52361.0,STARLINK-3728,PAYLOAD,2024-02-29 00:48:48,15.0883665,0.000141,53.216,279.5643,83.9541,276.1612,9.0986e-05,1.16e-05,0.0,0 STARLINK-3728,1 52361U 22045AG  24060.03389364  .00001160  00000-0  90986-4 0  9992,2 52361  53.2160 279.5643 0001410  83.9541 276.1612 15.08836650104123,6917.891,95.438,540.731,538.78,0.0
52361.0,STARLINK-3728,PAYLOAD,2024-02-29 21:28:48,15.08844239,0.0001325,53.2167,275.6988,89.0726,271.0418,0.00016032,2.265e-05,0.0,0 STARLINK-3728,1 52361U 22045AG  24060.89500916  .00002265  00000-0  16032-3 0  9990,2 52361  53.2167 275.6988 0001325  89.0726 271.0418 15.08844239104250,6917.867,95.437,540.649,538.816,0.0
52361.0,STARLINK-3728,PAYLOAD,2024-03-01 07:01:07,15.08838068,0.0001254,53.2151,273.9113,79.4735,280.6399,6.0018e-05,6.67e-06,0.0,0 STARLINK-3728,1 52361U 22045AG  24061.29245202  .00000667  00000-0  60018-4 0  9997,2 52361  53.2151 273.9113 0001254  79.4735 280.6399 15.08838068104312,6917.886,95.438,540.619,538.884,0.0
52361.0,STARLINK-3728,PAYLOAD,2024-03-01 21:19:36,15.08837236,0.0001335,53.2169,271.238,85.9195,274.195,9.7292e-05,1.261e-05,0.0,0 STARLINK-3728,1 52361U 22045AG  24061.88861811  .00001261  00000-0  97292-4 0  9997,2 52361  53.2169 271.2380 0001335  85.9195 274.1950 15.08837236104407,6917.889,95.438,540.677,538.83,0.0
52361.0,STARLINK-3728,PAYLOAD,2024-03-02 19:35:00,15.08842034,0.0001311,53.2154,267.0722,78.84,281.274,5.6588e-05,6.13e-06,0.0,0 STARLINK-3728,1 52361U 22045AG  24062.81597352  .00000613  00000-0  56588-4 0  9990,2 52361  53.2154 267.0722 0001311  78.8400 281.2740 15.08842034104541,6917.874,95.437,540.646,538.832,0.0
52361.0,STARLINK-3728,PAYLOAD,2024-03-02 21:10:23,15.08844933,0.000136,53.2159,266.7749,73.4485,286.6656,3.0905e-05,2.04e-06,0.0,0 STARLINK-3728,1 52361U 22045AG  24062.88221207  .00000204  00000-0  30905-4 0  9991,2 52361  53.2159 266.7749 0001360  73.4485 286.6656 15.08844933104555,6917.865,95.437,540.671,538.789,0.0
52361.0,STARLINK-3728,PAYLOAD,2024-03-03 13:04:15,15.0882966,0.0001418,53.2158,263.8043,82.1546,277.9607,0.00023379,3.434e-05,0.0,0 STARLINK-3728,1 52361U 22045AG  24063.54462336  .00003434  00000-0  23379-3 0  9999,2 52361  53.2158 263.8043 0001418  82.1546 277.9607 15.08829660104658,6917.912,95.438,540.758,538.796,0.0
52361.0,STARLINK-3728,PAYLOAD,2024-03-03 19:25:47,15.08836095,0.0001519,53.2159,262.6166,77.5135,282.6027,7.2783e-05,8.7e-06,0.0,0 STARLINK-3728,1 52361U 22045AG  24063.80958071  .00000870  00000-0  72783-4 0  9999,2 52361  53.2159 262.6166 0001519  77.5135 282.6027 15.08836095104699,6917.892,95.438,540.808,538.706,0.0
52361.0,STARLINK-3728,PAYLOAD,2024-03-04 06:33:28,15.08849144,0.0001342,53.2159,260.5326,85.0208,275.0937,0.00018109,2.596e-05,0.0,0 STARLINK-3728,1 52361U 22045AG  24064.27325115  .00002596  00000-0  18109-3 0  9996,2 52361  53.2159 260.5326 0001342  85.0208 275.0937 15.08849144104766,6917.852,95.437,540.646,538.789,0.0
52361.0,STARLINK-3728,PAYLOAD,2024-03-04 17:41:10,15.0885804,0.0001306,53.215,258.4507,87.2135,272.9007,0.00029429,4.401e-05,0.0,0 STARLINK-3728,1 52361U 22045AG  24064.73692622  .00004401  00000-0  29429-3 0  9991,2 52361  53.2150 258.4507 0001306  87.2135 272.9007 15.08858040104834,6917.825,95.436,540.594,538.787,0.0
